{"type":"FeatureCollection","features":[{"type":"Feature","properties":{},"geometry":{"type":"Polygon","coordinates":[[[-7.256,55.067],[-7.289,55.047],[-7.345,55.051],[-7.391,55.022],[-7.399,54.948],[-7.397,54.946],[-7.447,54.935],[-7.443,54.872],[-7.484,54.824],[-7.549,54.789],[-7.543,54.743],[-7.637,54.752],[-7.75,54.704],[-7.837,54.736],[-7.88,54.703],[-7.918,54.703],[-7.898,54.687],[-7.91,54.668],[-7.857,54.651],[-7.852,54.631],[-7.814,54.644],[-7.742,54.618],[-7.709,54.635],[-7.697,54.61],[-7.793,54.582],[-7.851,54.533],[-8.006,54.546],[-8.043,54.488],[-8.178,54.465],[-8.057,54.366],[-8.001,54.358],[-7.962,54.312],[-7.862,54.293],[-7.86,54.217],[-7.812,54.201],[-7.688,54.202],[-7.61,54.144],[-7.548,54.122],[-7.528,54.136],[-7.479,54.122],[-7.442,54.154],[-7.41,54.156],[-7.42,54.137],[-7.373,54.14],[-7.392,54.12],[-7.363,54.132],[-7.319,54.113],[-7.305,54.123],[-7.34,54.147],[-7.291,54.172],[-7.286,54.136],[-7.309,54.132],[-7.279,54.123],[-7.24,54.17],[-7.258,54.177],[-7.259,54.192],[-7.233,54.198],[-7.248,54.204],[-7.145,54.225],[-7.159,54.244],[-7.142,54.256],[-7.212,54.3],[-7.179,54.31],[-7.189,54.338],[-7.153,54.335],[-7.104,54.356],[-7.11,54.368],[-7.029,54.421],[-6.924,54.383],[-6.906,54.35],[-6.876,54.347],[-6.851,54.297],[-6.878,54.279],[-6.828,54.261],[-6.795,54.209],[-6.741,54.182],[-6.692,54.2],[-6.644,54.18],[-6.63,54.154],[-6.661,54.123],[-6.645,54.096],[-6.669,54.073],[-6.624,54.036],[-6.586,54.058],[-6.511,54.053],[-6.471,54.066],[-6.478,54.077],[-6.443,54.056],[-6.391,54.059],[-6.363,54.073],[-6.366,54.114],[-6.318,54.091],[-6.292,54.112],[-6.185,54.041],[-6.148,54.027],[-6.131,54.035],[-6.103,54],[-6.165,53.977],[-6.353,54.011],[-6.365,54.031],[-6.356,54.013],[-6.403,54.012],[-6.339,53.998],[-6.379,53.954],[-6.368,53.902],[-6.332,53.876],[-6.24,53.862],[-6.26,53.807],[-6.216,53.796],[-6.248,53.759],[-6.239,53.723],[-6.274,53.737],[-6.351,53.713],[-6.403,53.719],[-6.351,53.713],[-6.261,53.731],[-6.237,53.721],[-6.249,53.677],[-6.213,53.634],[-6.188,53.63],[-6.149,53.586],[-6.099,53.586],[-6.08,53.553],[-6.076,53.52],[-6.184,53.499],[-6.114,53.508],[-6.097,53.49],[-6.132,53.453],[-6.15,53.476],[-6.155,53.459],[-6.155,53.469],[-6.203,53.465],[-6.124,53.444],[-6.104,53.398],[-6.134,53.419],[-6.135,53.407],[-6.116,53.392],[-6.045,53.385],[-6.052,53.361],[-6.082,53.361],[-6.119,53.389],[-6.162,53.375],[-6.115,53.383],[-6.164,53.355],[-6.151,53.345],[-6.178,53.359],[-6.158,53.372],[-6.23,53.359],[-6.151,53.342],[-6.21,53.337],[-6.205,53.316],[-6.155,53.296],[-6.126,53.302],[-6.091,53.272],[-6.113,53.257],[-6.103,53.209],[-6.038,53.095],[-6.049,52.996],[-5.998,52.965],[-6.057,52.858],[-6.109,52.836],[-6.142,52.801],[-6.142,52.794],[-6.138,52.794],[-6.144,52.794],[-6.151,52.8],[-6.165,52.801],[-6.153,52.799],[-6.146,52.794],[-6.137,52.793],[-6.141,52.734],[-6.196,52.688],[-6.23,52.63],[-6.193,52.563],[-6.353,52.409],[-6.358,52.345],[-6.436,52.356],[-6.456,52.34],[-6.467,52.379],[-6.51,52.351],[-6.541,52.356],[-6.568,52.384],[-6.547,52.399],[-6.569,52.489],[-6.551,52.408],[-6.569,52.382],[-6.545,52.355],[-6.518,52.348],[-6.476,52.352],[-6.447,52.308],[-6.408,52.288],[-6.388,52.31],[-6.374,52.258],[-6.314,52.241],[-6.36,52.174],[-6.477,52.191],[-6.596,52.17],[-6.651,52.204],[-6.715,52.216],[-6.631,52.203],[-6.651,52.223],[-6.652,52.214],[-6.706,52.219],[-6.786,52.204],[-6.818,52.216],[-6.797,52.224],[-6.789,52.215],[-6.753,52.248],[-6.758,52.267],[-6.852,52.207],[-6.82,52.214],[-6.843,52.187],[-6.82,52.192],[-6.824,52.175],[-6.882,52.161],[-6.925,52.123],[-6.903,52.196],[-6.956,52.243],[-6.983,52.186],[-6.95,52.177],[-7.021,52.134],[-7.108,52.128],[-7.063,52.16],[-7.07,52.171],[-7.12,52.162],[-7.136,52.174],[-7.131,52.158],[-7.09,52.149],[-7.152,52.158],[-7.184,52.133],[-7.291,52.141],[-7.425,52.13],[-7.54,52.099],[-7.553,52.078],[-7.582,52.107],[-7.612,52.087],[-7.638,52.105],[-7.615,52.089],[-7.644,52.061],[-7.605,52.063],[-7.611,52.085],[-7.589,52.051],[-7.536,52.053],[-7.575,52.034],[-7.585,51.992],[-7.701,51.973],[-7.723,51.952],[-7.708,51.941],[-7.732,51.938],[-7.774,51.952],[-7.83,51.941],[-7.84,51.955],[-7.812,51.972],[-7.854,51.981],[-7.889,51.977],[-7.853,51.976],[-7.842,51.94],[-7.886,51.911],[-7.907,51.92],[-7.932,51.909],[-7.922,51.899],[-7.904,51.911],[-7.904,51.894],[-7.866,51.88],[-7.995,51.861],[-8.032,51.838],[-8.001,51.825],[-8.061,51.809],[-8.135,51.805],[-8.174,51.785],[-8.181,51.796],[-8.255,51.793],[-8.253,51.829],[-8.234,51.824],[-8.24,51.837],[-8.179,51.846],[-8.194,51.851],[-8.168,51.862],[-8.21,51.86],[-8.199,51.879],[-8.17,51.883],[-8.177,51.906],[-8.199,51.884],[-8.259,51.882],[-8.254,51.889],[-8.268,51.895],[-8.273,51.888],[-8.28,51.898],[-8.306,51.889],[-8.282,51.88],[-8.203,51.878],[-8.216,51.857],[-8.314,51.843],[-8.332,51.878],[-8.306,51.889],[-8.323,51.896],[-8.277,51.902],[-8.344,51.91],[-8.318,51.905],[-8.335,51.885],[-8.396,51.906],[-8.461,51.9],[-8.393,51.898],[-8.392,51.881],[-8.436,51.879],[-8.346,51.879],[-8.331,51.85],[-8.36,51.838],[-8.299,51.835],[-8.304,51.819],[-8.325,51.823],[-8.297,51.807],[-8.389,51.814],[-8.328,51.801],[-8.278,51.811],[-8.273,51.798],[-8.339,51.765],[-8.296,51.767],[-8.311,51.731],[-8.419,51.704],[-8.429,51.687],[-8.447,51.689],[-8.438,51.716],[-8.454,51.697],[-8.49,51.717],[-8.484,51.735],[-8.494,51.718],[-8.517,51.722],[-8.451,51.694],[-8.477,51.674],[-8.494,51.674],[-8.492,51.689],[-8.516,51.707],[-8.528,51.694],[-8.567,51.713],[-8.557,51.702],[-8.597,51.699],[-8.605,51.716],[-8.589,51.717],[-8.61,51.718],[-8.628,51.746],[-8.668,51.766],[-8.628,51.742],[-8.638,51.733],[-8.608,51.708],[-8.626,51.711],[-8.599,51.694],[-8.551,51.7],[-8.532,51.69],[-8.508,51.7],[-8.503,51.685],[-8.533,51.686],[-8.53,51.656],[-8.552,51.643],[-8.528,51.627],[-8.533,51.604],[-8.569,51.64],[-8.659,51.634],[-8.673,51.666],[-8.681,51.644],[-8.712,51.639],[-8.762,51.644],[-8.774,51.662],[-8.769,51.633],[-8.755,51.643],[-8.683,51.636],[-8.702,51.618],[-8.676,51.609],[-8.713,51.569],[-8.759,51.573],[-8.764,51.596],[-8.776,51.582],[-8.849,51.593],[-8.849,51.613],[-8.882,51.623],[-8.851,51.601],[-8.892,51.604],[-8.869,51.576],[-8.893,51.57],[-8.889,51.551],[-8.94,51.546],[-8.952,51.529],[-8.957,51.552],[-9.022,51.576],[-9.014,51.559],[-9.069,51.56],[-9.084,51.546],[-9.145,51.58],[-9.109,51.538],[-9.175,51.516],[-9.163,51.535],[-9.171,51.552],[-9.169,51.53],[-9.229,51.481],[-9.237,51.497],[-9.272,51.484],[-9.266,51.503],[-9.345,51.468],[-9.38,51.469],[-9.389,51.475],[-9.357,51.486],[-9.355,51.514],[-9.319,51.533],[-9.32,51.545],[-9.285,51.552],[-9.323,51.546],[-9.322,51.535],[-9.368,51.528],[-9.413,51.496],[-9.412,51.515],[-9.431,51.511],[-9.393,51.552],[-9.414,51.54],[-9.413,51.553],[-9.429,51.543],[-9.458,51.563],[-9.434,51.542],[-9.455,51.525],[-9.53,51.513],[-9.535,51.53],[-9.547,51.509],[-9.585,51.503],[-9.587,51.517],[-9.612,51.499],[-9.585,51.497],[-9.615,51.492],[-9.633,51.492],[-9.618,51.498],[-9.643,51.521],[-9.664,51.518],[-9.663,51.5],[-9.71,51.496],[-9.704,51.476],[-9.752,51.464],[-9.7,51.471],[-9.772,51.448],[-9.764,51.48],[-9.795,51.45],[-9.822,51.449],[-9.807,51.475],[-9.837,51.483],[-9.751,51.523],[-9.654,51.542],[-9.645,51.567],[-9.525,51.62],[-9.634,51.6],[-9.73,51.56],[-9.849,51.544],[-9.702,51.613],[-9.441,51.695],[-9.46,51.698],[-9.44,51.709],[-9.454,51.703],[-9.44,51.723],[-9.463,51.716],[-9.449,51.736],[-9.49,51.714],[-9.532,51.73],[-9.538,51.753],[-9.559,51.733],[-9.549,51.713],[-9.646,51.674],[-9.718,51.676],[-9.726,51.692],[-9.732,51.667],[-9.904,51.655],[-9.94,51.636],[-9.923,51.633],[-9.936,51.614],[-9.965,51.621],[-10.039,51.589],[-10.046,51.604],[-10.121,51.602],[-10.161,51.581],[-10.141,51.606],[-10.157,51.615],[-10.062,51.625],[-10.058,51.654],[-10.101,51.659],[-10.092,51.674],[-10.056,51.668],[-9.972,51.685],[-9.945,51.715],[-10.006,51.716],[-9.982,51.732],[-9.883,51.764],[-9.87,51.757],[-9.897,51.739],[-9.882,51.741],[-9.846,51.758],[-9.848,51.778],[-9.846,51.766],[-9.793,51.767],[-9.804,51.761],[-9.781,51.756],[-9.781,51.772],[-9.825,51.784],[-9.777,51.798],[-9.734,51.835],[-9.645,51.845],[-9.537,51.888],[-9.582,51.871],[-9.744,51.855],[-9.854,51.807],[-9.878,51.822],[-9.897,51.813],[-9.903,51.837],[-9.908,51.804],[-10.012,51.771],[-10.051,51.774],[-10.13,51.737],[-10.113,51.764],[-10.224,51.778],[-10.181,51.788],[-10.172,51.805],[-10.174,51.827],[-10.207,51.844],[-10.189,51.857],[-10.247,51.844],[-10.273,51.806],[-10.344,51.784],[-10.333,51.84],[-10.398,51.844],[-10.382,51.86],[-10.394,51.886],[-10.298,51.895],[-10.27,51.914],[-10.251,51.898],[-10.253,51.922],[-10.278,51.93],[-10.183,51.962],[-10.275,51.939],[-10.279,51.952],[-10.318,51.957],[-10.264,51.965],[-10.257,51.992],[-10.213,51.989],[-10.132,52.029],[-10.101,52.025],[-9.979,52.052],[-9.97,52.082],[-9.975,52.056],[-9.935,52.079],[-9.925,52.065],[-9.905,52.069],[-9.936,52.085],[-9.899,52.139],[-9.89,52.111],[-9.84,52.114],[-9.812,52.132],[-9.768,52.123],[-9.776,52.102],[-9.765,52.123],[-9.796,52.146],[-9.759,52.158],[-9.751,52.154],[-9.756,52.151],[-9.755,52.147],[-9.751,52.147],[-9.701,52.167],[-9.752,52.147],[-9.755,52.151],[-9.75,52.152],[-9.75,52.154],[-9.76,52.16],[-9.792,52.152],[-9.8,52.163],[-9.97,52.142],[-9.936,52.106],[-9.987,52.143],[-10.195,52.108],[-10.216,52.122],[-10.205,52.136],[-10.248,52.116],[-10.288,52.142],[-10.312,52.128],[-10.265,52.114],[-10.324,52.113],[-10.362,52.133],[-10.379,52.118],[-10.356,52.105],[-10.452,52.097],[-10.48,52.109],[-10.459,52.123],[-10.478,52.151],[-10.44,52.174],[-10.472,52.181],[-10.408,52.209],[-10.416,52.185],[-10.373,52.175],[-10.358,52.236],[-10.311,52.237],[-10.294,52.258],[-10.176,52.292],[-10.146,52.262],[-10.183,52.231],[-10.086,52.248],[-10.033,52.284],[-10.06,52.307],[-10.023,52.305],[-10.016,52.317],[-10.027,52.271],[-9.956,52.233],[-9.863,52.236],[-9.828,52.261],[-9.81,52.256],[-9.839,52.25],[-9.825,52.243],[-9.721,52.259],[-9.776,52.275],[-9.875,52.274],[-9.885,52.302],[-9.863,52.295],[-9.871,52.28],[-9.829,52.301],[-9.869,52.303],[-9.825,52.312],[-9.831,52.324],[-9.85,52.311],[-9.836,52.389],[-9.948,52.413],[-9.907,52.434],[-9.864,52.427],[-9.77,52.449],[-9.694,52.48],[-9.678,52.548],[-9.618,52.581],[-9.542,52.566],[-9.496,52.58],[-9.485,52.569],[-9.505,52.571],[-9.467,52.56],[-9.476,52.548],[-9.466,52.559],[-9.481,52.567],[-9.452,52.582],[-9.373,52.592],[-9.371,52.572],[-9.305,52.571],[-9.121,52.616],[-9.057,52.597],[-9.085,52.619],[-9.061,52.637],[-9.058,52.614],[-9.023,52.629],[-8.977,52.604],[-8.998,52.638],[-8.957,52.66],[-8.836,52.672],[-8.803,52.658],[-8.748,52.674],[-8.71,52.67],[-8.695,52.652],[-8.627,52.666],[-8.696,52.654],[-8.711,52.674],[-8.835,52.685],[-8.863,52.7],[-8.914,52.681],[-8.919,52.69],[-8.92,52.68],[-8.966,52.684],[-8.959,52.707],[-8.933,52.713],[-8.957,52.73],[-8.941,52.74],[-8.978,52.755],[-8.945,52.768],[-8.958,52.816],[-8.949,52.779],[-9.055,52.744],[-9.034,52.745],[-9.033,52.731],[-9.066,52.711],[-9.077,52.672],[-9.107,52.668],[-9.163,52.619],[-9.246,52.623],[-9.261,52.603],[-9.313,52.587],[-9.339,52.6],[-9.27,52.643],[-9.41,52.603],[-9.53,52.631],[-9.541,52.672],[-9.607,52.669],[-9.546,52.641],[-9.603,52.618],[-9.701,52.612],[-9.697,52.582],[-9.74,52.587],[-9.812,52.565],[-9.861,52.571],[-9.892,52.554],[-9.939,52.559],[-9.879,52.591],[-9.807,52.605],[-9.798,52.622],[-9.677,52.681],[-9.649,52.679],[-9.66,52.692],[-9.616,52.716],[-9.635,52.729],[-9.607,52.744],[-9.547,52.752],[-9.532,52.735],[-9.497,52.75],[-9.493,52.809],[-9.433,52.835],[-9.454,52.849],[-9.43,52.86],[-9.436,52.884],[-9.352,52.918],[-9.359,52.942],[-9.34,52.943],[-9.348,52.951],[-9.4,52.933],[-9.467,52.93],[-9.476,52.941],[-9.392,53.008],[-9.409,53.019],[-9.358,53.073],[-9.311,53.092],[-9.283,53.145],[-9.263,53.154],[-9.171,53.136],[-9.187,53.135],[-9.152,53.117],[-9.094,53.144],[-9.072,53.122],[-9.089,53.148],[-9.136,53.15],[-9.051,53.159],[-9.01,53.141],[-8.998,53.156],[-9.088,53.164],[-8.969,53.177],[-8.996,53.163],[-8.928,53.141],[-8.956,53.177],[-8.931,53.197],[-8.955,53.192],[-8.873,53.213],[-8.913,53.212],[-8.885,53.228],[-8.929,53.212],[-8.999,53.212],[-8.975,53.217],[-9.003,53.226],[-8.945,53.239],[-9.007,53.233],[-8.964,53.241],[-8.991,53.246],[-8.931,53.271],[-9.044,53.267],[-9.032,53.281],[-9.056,53.27],[-9.052,53.253],[-9.069,53.263],[-9.113,53.249],[-9.126,53.259],[-9.12,53.25],[-9.521,53.221],[-9.555,53.237],[-9.548,53.262],[-9.559,53.25],[-9.568,53.264],[-9.54,53.279],[-9.559,53.291],[-9.586,53.236],[-9.615,53.231],[-9.632,53.251],[-9.599,53.295],[-9.625,53.319],[-9.589,53.33],[-9.577,53.317],[-9.568,53.347],[-9.556,53.306],[-9.548,53.345],[-9.599,53.362],[-9.595,53.374],[-9.549,53.375],[-9.577,53.383],[-9.547,53.402],[-9.578,53.395],[-9.588,53.387],[-9.577,53.378],[-9.614,53.379],[-9.596,53.335],[-9.666,53.339],[-9.624,53.347],[-9.647,53.354],[-9.626,53.362],[-9.628,53.381],[-9.648,53.372],[-9.633,53.388],[-9.658,53.386],[-9.665,53.369],[-9.714,53.359],[-9.696,53.356],[-9.708,53.333],[-9.773,53.292],[-9.815,53.322],[-9.823,53.308],[-9.865,53.332],[-9.871,53.312],[-9.907,53.325],[-9.875,53.353],[-9.894,53.353],[-9.89,53.368],[-9.781,53.39],[-9.803,53.393],[-9.785,53.407],[-9.823,53.406],[-9.81,53.419],[-9.845,53.395],[-9.863,53.401],[-9.863,53.388],[-9.882,53.393],[-9.886,53.413],[-9.849,53.42],[-9.851,53.428],[-9.831,53.421],[-9.838,53.43],[-9.87,53.438],[-9.863,53.423],[-9.887,53.415],[-9.902,53.424],[-9.915,53.389],[-9.956,53.38],[-9.958,53.367],[-9.966,53.382],[-10.031,53.386],[-10.036,53.409],[-10.068,53.422],[-10.119,53.401],[-10.149,53.419],[-10.183,53.409],[-10.132,53.457],[-10.088,53.437],[-10.092,53.447],[-10.071,53.439],[-10.034,53.46],[-10.093,53.468],[-10.083,53.489],[-10.018,53.465],[-10.006,53.48],[-10.034,53.473],[-10.046,53.482],[-10.022,53.487],[-10.124,53.501],[-10.138,53.515],[-10.105,53.512],[-10.137,53.522],[-10.041,53.509],[-10.138,53.523],[-10.145,53.542],[-10.2,53.544],[-10.19,53.556],[-10.152,53.566],[-10.095,53.554],[-10.131,53.575],[-10.103,53.578],[-10.011,53.566],[-10.002,53.544],[-9.954,53.552],[-9.999,53.557],[-9.963,53.571],[-10.022,53.578],[-10.048,53.611],[-9.919,53.598],[-9.899,53.615],[-9.849,53.609],[-9.874,53.627],[-9.785,53.593],[-9.672,53.608],[-9.784,53.603],[-9.915,53.653],[-9.906,53.762],[-9.779,53.783],[-9.707,53.778],[-9.648,53.801],[-9.658,53.782],[-9.582,53.78],[-9.544,53.804],[-9.596,53.803],[-9.626,53.822],[-9.596,53.834],[-9.62,53.833],[-9.618,53.845],[-9.563,53.847],[-9.595,53.858],[-9.554,53.856],[-9.602,53.866],[-9.552,53.877],[-9.587,53.875],[-9.56,53.881],[-9.588,53.881],[-9.576,53.885],[-9.539,53.884],[-9.555,53.891],[-9.565,53.889],[-9.561,53.888],[-9.601,53.883],[-9.565,53.889],[-9.565,53.892],[-9.577,53.893],[-9.575,53.904],[-9.587,53.888],[-9.65,53.887],[-9.654,53.9],[-9.667,53.89],[-9.746,53.902],[-9.73,53.895],[-9.744,53.891],[-9.777,53.906],[-9.833,53.872],[-9.905,53.862],[-9.944,53.871],[-9.9,53.934],[-9.921,53.933],[-9.907,53.958],[-9.838,53.961],[-9.813,53.944],[-9.802,53.951],[-9.795,53.931],[-9.815,53.927],[-9.791,53.912],[-9.794,53.975],[-9.827,53.967],[-9.817,53.949],[-9.829,53.967],[-9.849,53.965],[-9.848,53.995],[-9.826,53.99],[-9.848,54.014],[-9.869,54.004],[-9.884,54.014],[-9.868,54.019],[-9.895,54.026],[-9.893,54.011],[-9.908,54.046],[-9.887,54.07],[-9.868,54.053],[-9.857,54.069],[-9.835,54.067],[-9.848,54.073],[-9.877,54.071],[-9.837,54.093],[-9.862,54.106],[-9.82,54.108],[-9.836,54.117],[-9.816,54.136],[-9.835,54.126],[-9.839,54.11],[-9.877,54.118],[-9.882,54.088],[-9.901,54.097],[-9.893,54.072],[-9.971,54.062],[-9.991,54.103],[-9.897,54.118],[-9.96,54.143],[-9.922,54.154],[-9.985,54.181],[-9.942,54.175],[-9.916,54.198],[-9.952,54.195],[-10.014,54.227],[-10.011,54.182],[-10.049,54.192],[-10.043,54.168],[-10.093,54.158],[-10.057,54.146],[-10.093,54.115],[-10.059,54.098],[-10.08,54.087],[-10.123,54.095],[-10.137,54.109],[-10.086,54.18],[-10.096,54.199],[-10.055,54.219],[-10.11,54.242],[-10.07,54.234],[-10.096,54.249],[-10.075,54.255],[-10.082,54.27],[-10.027,54.282],[-10.002,54.306],[-9.962,54.273],[-9.93,54.271],[-9.939,54.248],[-9.923,54.275],[-9.915,54.262],[-9.888,54.269],[-9.914,54.228],[-9.944,54.22],[-9.985,54.251],[-9.963,54.223],[-9.988,54.226],[-9.948,54.213],[-9.876,54.218],[-9.882,54.234],[-9.847,54.223],[-9.88,54.257],[-9.868,54.274],[-9.812,54.286],[-9.804,54.27],[-9.715,54.244],[-9.722,54.271],[-9.75,54.255],[-9.808,54.287],[-9.766,54.288],[-9.863,54.304],[-9.861,54.323],[-9.788,54.345],[-9.782,54.331],[-9.753,54.341],[-9.71,54.316],[-9.616,54.327],[-9.517,54.309],[-9.498,54.321],[-9.394,54.309],[-9.382,54.294],[-9.344,54.328],[-9.267,54.31],[-9.254,54.27],[-9.222,54.287],[-9.207,54.276],[-9.217,54.249],[-9.268,54.225],[-9.196,54.247],[-9.225,54.217],[-9.161,54.202],[-9.139,54.162],[-9.105,54.204],[-9.135,54.205],[-9.095,54.214],[-9.054,54.294],[-8.932,54.293],[-8.827,54.253],[-8.761,54.279],[-8.726,54.263],[-8.66,54.272],[-8.584,54.208],[-8.513,54.215],[-8.502,54.221],[-8.573,54.233],[-8.603,54.261],[-8.625,54.256],[-8.611,54.284],[-8.568,54.276],[-8.495,54.286],[-8.474,54.272],[-8.515,54.3],[-8.577,54.307],[-8.564,54.335],[-8.528,54.315],[-8.501,54.328],[-8.577,54.344],[-8.642,54.334],[-8.643,54.321],[-8.681,54.356],[-8.571,54.392],[-8.568,54.412],[-8.547,54.406],[-8.508,54.424],[-8.535,54.407],[-8.562,54.404],[-8.546,54.393],[-8.497,54.414],[-8.466,54.44],[-8.489,54.454],[-8.466,54.471],[-8.44,54.452],[-8.282,54.478],[-8.261,54.505],[-8.195,54.501],[-8.269,54.525],[-8.212,54.548],[-8.223,54.572],[-8.166,54.595],[-8.165,54.625],[-8.149,54.602],[-8.132,54.619],[-8.11,54.611],[-8.132,54.623],[-8.106,54.632],[-8.144,54.631],[-8.109,54.655],[-8.162,54.629],[-8.148,54.649],[-8.299,54.601],[-8.272,54.636],[-8.288,54.647],[-8.462,54.567],[-8.453,54.587],[-8.377,54.614],[-8.385,54.636],[-8.44,54.614],[-8.42,54.651],[-8.465,54.605],[-8.484,54.605],[-8.479,54.636],[-8.588,54.606],[-8.643,54.65],[-8.629,54.622],[-8.68,54.618],[-8.691,54.642],[-8.791,54.66],[-8.783,54.689],[-8.806,54.7],[-8.731,54.711],[-8.752,54.717],[-8.746,54.739],[-8.667,54.77],[-8.594,54.779],[-8.435,54.755],[-8.547,54.782],[-8.482,54.792],[-8.43,54.763],[-8.412,54.774],[-8.565,54.828],[-8.401,54.853],[-8.363,54.843],[-8.374,54.834],[-8.334,54.834],[-8.21,54.899],[-8.339,54.842],[-8.382,54.851],[-8.39,54.878],[-8.321,54.873],[-8.305,54.888],[-8.34,54.89],[-8.344,54.907],[-8.38,54.905],[-8.385,54.883],[-8.456,54.911],[-8.454,54.945],[-8.42,54.935],[-8.364,54.948],[-8.413,54.958],[-8.454,54.999],[-8.423,55.012],[-8.4,55.003],[-8.4,55.041],[-8.349,55.038],[-8.35,55.065],[-8.317,55.068],[-8.297,55.151],[-8.284,55.159],[-8.166,55.145],[-8.137,55.163],[-8.13,55.156],[-8.171,55.143],[-8.135,55.121],[-8.123,55.157],[-8.029,55.174],[-8.017,55.214],[-7.983,55.228],[-7.939,55.209],[-7.983,55.186],[-7.896,55.188],[-7.899,55.174],[-7.877,55.173],[-7.914,55.155],[-7.853,55.165],[-7.907,55.134],[-7.875,55.145],[-7.856,55.129],[-7.825,55.181],[-7.874,55.203],[-7.866,55.23],[-7.816,55.225],[-7.787,55.257],[-7.817,55.199],[-7.807,55.178],[-7.765,55.189],[-7.712,55.167],[-7.688,55.143],[-7.715,55.099],[-7.695,55.099],[-7.665,55.159],[-7.679,55.185],[-7.697,55.179],[-7.716,55.196],[-7.696,55.196],[-7.701,55.225],[-7.723,55.22],[-7.71,55.169],[-7.738,55.197],[-7.768,55.191],[-7.799,55.216],[-7.753,55.237],[-7.759,55.256],[-7.703,55.248],[-7.66,55.278],[-7.632,55.278],[-7.603,55.232],[-7.618,55.191],[-7.571,55.18],[-7.518,55.123],[-7.529,55.095],[-7.586,55.081],[-7.652,55.037],[-7.578,55.055],[-7.56,55.045],[-7.581,55.018],[-7.64,54.996],[-7.66,54.969],[-7.626,54.968],[-7.637,54.947],[-7.594,54.995],[-7.47,55.05],[-7.524,55.058],[-7.529,55.077],[-7.49,55.085],[-7.455,55.063],[-7.485,55.093],[-7.461,55.137],[-7.555,55.198],[-7.518,55.239],[-7.522,55.286],[-7.471,55.281],[-7.468,55.296],[-7.43,55.282],[-7.383,55.293],[-7.363,55.319],[-7.304,55.293],[-7.349,55.285],[-7.246,55.278],[-7.267,55.29],[-7.252,55.295],[-7.329,55.311],[-7.348,55.358],[-7.4,55.375],[-7.367,55.382],[-7.176,55.34],[-7.152,55.303],[-7.166,55.288],[-7.124,55.295],[-6.923,55.237],[-6.952,55.21],[-7.159,55.149],[-7.256,55.067]]]}},{"type":"Feature","properties":{},"geometry":{"type":"Polygon","coordinates":[[[-9.944,53.885],[-9.961,53.874],[-9.991,53.888],[-10.019,53.921],[-10.053,53.914],[-10.044,53.958],[-10.067,53.972],[-10.195,53.96],[-10.259,53.975],[-10.187,53.997],[-10.189,54.016],[-10.101,54.001],[-10.07,54.024],[-10.026,54.012],[-9.973,54.03],[-9.928,53.995],[-9.957,53.989],[-9.968,53.951],[-9.945,53.946],[-9.946,53.965],[-9.914,53.964],[-9.931,53.917],[-9.957,53.91],[-9.944,53.885]]]}},{"type":"Feature","properties":{},"geometry":{"type":"Polygon","coordinates":[[[-7.397,54.946],[-7.399,54.948],[-7.391,55.022],[-7.345,55.051],[-7.289,55.047],[-7.256,55.067],[-7.214,55.056],[-7.148,55.066],[-7.132,55.042],[-7.052,55.05],[-7.014,55.076],[-7.015,55.104],[-6.971,55.103],[-6.997,55.111],[-6.961,55.195],[-6.876,55.169],[-6.749,55.169],[-6.722,55.19],[-6.658,55.199],[-6.663,55.213],[-6.648,55.204],[-6.546,55.216],[-6.482,55.252],[-6.408,55.232],[-6.368,55.246],[-6.333,55.24],[-6.237,55.204],[-6.142,55.228],[-6.062,55.199],[-6.025,55.156],[-6.059,55.064],[-5.963,55.049],[-5.988,54.982],[-5.919,54.962],[-5.878,54.908],[-5.844,54.901],[-5.798,54.855],[-5.8,54.84],[-5.817,54.847],[-5.807,54.827],[-5.742,54.812],[-5.722,54.773],[-5.734,54.813],[-5.789,54.844],[-5.78,54.859],[-5.725,54.848],[-5.689,54.803],[-5.71,54.746],[-5.896,54.674],[-5.915,54.643],[-5.906,54.63],[-5.877,54.638],[-5.921,54.603],[-5.892,54.623],[-5.898,54.61],[-5.879,54.609],[-5.873,54.636],[-5.741,54.678],[-5.672,54.663],[-5.631,54.681],[-5.584,54.678],[-5.53,54.645],[-5.521,54.598],[-5.477,54.564],[-5.464,54.499],[-5.433,54.486],[-5.437,54.456],[-5.479,54.43],[-5.458,54.39],[-5.489,54.377],[-5.504,54.332],[-5.58,54.401],[-5.577,54.423],[-5.549,54.435],[-5.54,54.425],[-5.529,54.454],[-5.557,54.529],[-5.686,54.582],[-5.697,54.547],[-5.737,54.546],[-5.653,54.52],[-5.678,54.497],[-5.64,54.489],[-5.651,54.453],[-5.627,54.463],[-5.641,54.401],[-5.685,54.372],[-5.666,54.362],[-5.572,54.383],[-5.524,54.311],[-5.608,54.266],[-5.612,54.247],[-5.64,54.263],[-5.659,54.225],[-5.69,54.251],[-5.821,54.242],[-5.821,54.282],[-5.86,54.251],[-5.858,54.239],[-5.838,54.253],[-5.831,54.24],[-5.892,54.206],[-5.871,54.167],[-5.893,54.109],[-6.062,54.023],[-6.108,54.04],[-6.074,54.045],[-6.094,54.062],[-6.166,54.067],[-6.202,54.099],[-6.254,54.096],[-6.319,54.15],[-6.292,54.112],[-6.318,54.091],[-6.366,54.114],[-6.363,54.073],[-6.391,54.059],[-6.443,54.056],[-6.478,54.077],[-6.471,54.066],[-6.511,54.053],[-6.586,54.058],[-6.624,54.036],[-6.669,54.073],[-6.645,54.096],[-6.661,54.123],[-6.63,54.154],[-6.644,54.18],[-6.692,54.2],[-6.741,54.182],[-6.795,54.209],[-6.828,54.261],[-6.878,54.279],[-6.851,54.297],[-6.876,54.347],[-6.906,54.35],[-6.924,54.383],[-7.029,54.421],[-7.11,54.368],[-7.104,54.356],[-7.153,54.335],[-7.189,54.338],[-7.179,54.31],[-7.212,54.3],[-7.142,54.256],[-7.159,54.244],[-7.145,54.225],[-7.248,54.204],[-7.233,54.198],[-7.259,54.192],[-7.258,54.177],[-7.24,54.17],[-7.279,54.123],[-7.309,54.132],[-7.286,54.136],[-7.291,54.172],[-7.34,54.147],[-7.305,54.123],[-7.319,54.113],[-7.363,54.132],[-7.392,54.12],[-7.373,54.14],[-7.42,54.137],[-7.41,54.156],[-7.442,54.154],[-7.479,54.122],[-7.528,54.136],[-7.548,54.122],[-7.61,54.144],[-7.688,54.202],[-7.812,54.201],[-7.86,54.217],[-7.862,54.293],[-7.962,54.312],[-8.001,54.358],[-8.057,54.366],[-8.178,54.465],[-8.043,54.488],[-8.006,54.546],[-7.851,54.533],[-7.793,54.582],[-7.697,54.61],[-7.709,54.635],[-7.742,54.618],[-7.814,54.644],[-7.852,54.631],[-7.857,54.651],[-7.91,54.668],[-7.898,54.687],[-7.918,54.703],[-7.88,54.703],[-7.837,54.736],[-7.75,54.704],[-7.637,54.752],[-7.543,54.743],[-7.549,54.789],[-7.484,54.824],[-7.443,54.872],[-7.447,54.935],[-7.397,54.946]]]}}]}